start=new Date('2022-05-07T00:00:00.000Z').valueOf();
sats=[{"PERIOD":"94.906","EPHEMERIS_TYPE":"0","INCLINATION":"70.0000","BSTAR":"-0.03871400000000","LAUNCH_DATE":"2021-09-14","RA_OF_ASC_NODE":"191.8575","RCS_SIZE":"LARGE","CLASSIFICATION_TYPE":"U","OBJECT_NAME":"STARLINK-3081","ARG_OF_PERICENTER":"286.0658","PERIAPSIS":"511.768","APOAPSIS":"516.310","TIME_SYSTEM":"UTC","MEAN_ELEMENT_THEORY":"SGP4","TLE_LINE1":"1 49152U 21082Y   22126.58334491 -.00720595  00000-0 -38714-1 0  9998","MEAN_MOTION_DDOT":"0.0000000000000","MEAN_MOTION_DOT":"-0.00720595","NORAD_CAT_ID":"49152","OBJECT_ID":"2021-082Y","REV_AT_EPOCH":"3793","DECAY_DATE":null,"COUNTRY_CODE":"US","TLE_LINE2":"2 49152  70.0000 191.8575 0003295 286.0658 301.5499 15.17289310 37930","EPOCH":"2022-05-06T14:00:01.000224","SITE":"AFWTR","ELEMENT_SET_NO":"999","REF_FRAME":"TEME","FILE":"3431570","OBJECT_TYPE":"PAYLOAD","MEAN_ANOMALY":"301.5499","MEAN_MOTION":"15.17289310","CENTER_NAME":"EARTH","SEMIMAJOR_AXIS":"6892.174","ECCENTRICITY":"0.00032950","GP_ID":"202824370"},{"ELEMENT_SET_NO":"999","SITE":"AFWTR","EPOCH":"2022-05-06T14:00:01.000224","TLE_LINE2":"2 49153  70.0000 191.8058 0003288 285.0605 325.5186 15.16467647  3662","REF_FRAME":"TEME","FILE":"3432208","MEAN_ANOMALY":"325.5186","OBJECT_TYPE":"PAYLOAD","SEMIMAJOR_AXIS":"6894.664","GP_ID":"202862666","ECCENTRICITY":"0.00032880","CENTER_NAME":"EARTH","MEAN_MOTION":"15.16467647","EPHEMERIS_TYPE":"0","PERIOD":"94.958","INCLINATION":"70.0000","RCS_SIZE":"LARGE","CLASSIFICATION_TYPE":"U","OBJECT_NAME":"STARLINK-3072","BSTAR":"-0.03966700000000","RA_OF_ASC_NODE":"191.8058","LAUNCH_DATE":"2021-09-14","MEAN_ELEMENT_THEORY":"SGP4","TIME_SYSTEM":"UTC","APOAPSIS":"518.795","MEAN_MOTION_DDOT":"0.0000000000000","OBJECT_ID":"2021-082Z","MEAN_MOTION_DOT":"-0.00721104","NORAD_CAT_ID":"49153","TLE_LINE1":"1 49153U 21082Z   22126.58334491 -.00721104  00000-0 -39667-1 0  9994","ARG_OF_PERICENTER":"285.0605","PERIAPSIS":"514.262","COUNTRY_CODE":"US","DECAY_DATE":null,"REV_AT_EPOCH":"366"},{"MEAN_MOTION":"14.96689706","CENTER_NAME":"EARTH","ECCENTRICITY":"0.00032940","GP_ID":"202862418","SEMIMAJOR_AXIS":"6955.270","OBJECT_TYPE":"PAYLOAD","MEAN_ANOMALY":"105.6926","FILE":"3432208","REF_FRAME":"TEME","EPOCH":"2022-05-06T14:00:01.000224","TLE_LINE2":"2 49154  69.9998 211.4683 0003294 277.7733 105.6926 14.96689706  3608","SITE":"AFWTR","ELEMENT_SET_NO":"999","REV_AT_EPOCH":"360","DECAY_DATE":null,"COUNTRY_CODE":"US","PERIAPSIS":"574.844","ARG_OF_PERICENTER":"277.7733","TLE_LINE1":"1 49154U 21082AA  22126.58334491  .00026595  00000-0  23242-2 0  9998","MEAN_MOTION_DDOT":"0.0000000000000","OBJECT_ID":"2021-082AA","MEAN_MOTION_DOT":"0.00026595","NORAD_CAT_ID":"49154","TIME_SYSTEM":"UTC","APOAPSIS":"579.426","MEAN_ELEMENT_THEORY":"SGP4","LAUNCH_DATE":"2021-09-14","RA_OF_ASC_NODE":"211.4683","BSTAR":"0.00232420000000","OBJECT_NAME":"STARLINK-3068","CLASSIFICATION_TYPE":"U","RCS_SIZE":"LARGE","INCLINATION":"69.9998","PERIOD":"96.212","EPHEMERIS_TYPE":"0"},{"EPHEMERIS_TYPE":"0","PERIOD":"94.919","INCLINATION":"70.0000","CLASSIFICATION_TYPE":"U","RCS_SIZE":"LARGE","OBJECT_NAME":"STARLINK-3060","BSTAR":"-0.03891100000000","RA_OF_ASC_NODE":"191.8508","LAUNCH_DATE":"2021-09-14","MEAN_ELEMENT_THEORY":"SGP4","APOAPSIS":"516.863","TIME_SYSTEM":"UTC","OBJECT_ID":"2021-082AB","MEAN_MOTION_DDOT":"0.0000000000000","MEAN_MOTION_DOT":"-0.00720007","NORAD_CAT_ID":"49155","TLE_LINE1":"1 49155U 21082AB  22126.58334491 -.00720007  00000-0 -38911-1 0  9998","ARG_OF_PERICENTER":"280.5628","PERIAPSIS":"512.466","COUNTRY_CODE":"US","DECAY_DATE":null,"REV_AT_EPOCH":"367","SITE":"AFWTR","ELEMENT_SET_NO":"999","TLE_LINE2":"2 49155  70.0000 191.8508 0003190 280.5628 279.0006 15.17082867  3674","EPOCH":"2022-05-06T14:00:01.000224","REF_FRAME":"TEME","FILE":"3432208","MEAN_ANOMALY":"279.0006","OBJECT_TYPE":"PAYLOAD","SEMIMAJOR_AXIS":"6892.799","GP_ID":"202863167","ECCENTRICITY":"0.00031900","CENTER_NAME":"EARTH","MEAN_MOTION":"15.17082867"},{"CENTER_NAME":"EARTH","MEAN_MOTION":"15.17663544","GP_ID":"202863893","ECCENTRICITY":"0.00032710","SEMIMAJOR_AXIS":"6891.041","OBJECT_TYPE":"PAYLOAD","MEAN_ANOMALY":"357.5792","FILE":"3432208","REF_FRAME":"TEME","ELEMENT_SET_NO":"999","SITE":"AFWTR","TLE_LINE2":"2 49156  70.0001 191.8377 0003271 281.4032 357.5792 15.17663544  3658","EPOCH":"2022-05-06T14:00:01.000224","REV_AT_EPOCH":"365","COUNTRY_CODE":"US","DECAY_DATE":null,"PERIAPSIS":"510.652","ARG_OF_PERICENTER":"281.4032","MEAN_MOTION_DOT":"-0.00722008","MEAN_MOTION_DDOT":"0.0000000000000","NORAD_CAT_ID":"49156","OBJECT_ID":"2021-082AC","TLE_LINE1":"1 49156U 21082AC  22126.58334491 -.00722008  00000-0 -38380-1 0  9992","MEAN_ELEMENT_THEORY":"SGP4","TIME_SYSTEM":"UTC","APOAPSIS":"515.160","RA_OF_ASC_NODE":"191.8377","LAUNCH_DATE":"2021-09-14","BSTAR":"-0.03838000000000","OBJECT_NAME":"STARLINK-3085","RCS_SIZE":"LARGE","CLASSIFICATION_TYPE":"U","INCLINATION":"70.0001","EPHEMERIS_TYPE":"0","PERIOD":"94.883"},{"PERIAPSIS":"574.851","ARG_OF_PERICENTER":"273.7998","TLE_LINE1":"1 49157U 21082AD  22126.58334491  .00025348  00000-0  22154-2 0  9997","MEAN_MOTION_DDOT":"0.0000000000000","MEAN_MOTION_DOT":"0.00025348","OBJECT_ID":"2021-082AD","NORAD_CAT_ID":"49157","APOAPSIS":"579.356","TIME_SYSTEM":"UTC","MEAN_ELEMENT_THEORY":"SGP4","REV_AT_EPOCH":"359","DECAY_DATE":null,"COUNTRY_CODE":"US","INCLINATION":"69.9993","PERIOD":"96.212","EPHEMERIS_TYPE":"0","LAUNCH_DATE":"2021-09-14","RA_OF_ASC_NODE":"211.4716","BSTAR":"0.00221540000000","OBJECT_NAME":"STARLINK-3051","RCS_SIZE":"LARGE","CLASSIFICATION_TYPE":"U","OBJECT_TYPE":"PAYLOAD","MEAN_ANOMALY":"135.8525","MEAN_MOTION":"14.96699846","CENTER_NAME":"EARTH","ECCENTRICITY":"0.00032390","GP_ID":"202862166","SEMIMAJOR_AXIS":"6955.239","REF_FRAME":"TEME","TLE_LINE2":"2 49157  69.9993 211.4716 0003239 273.7998 135.8525 14.96699846  3595","EPOCH":"2022-05-06T14:00:01.000224","ELEMENT_SET_NO":"999","SITE":"AFWTR","FILE":"3432208"},{"FILE":"3432208","REF_FRAME":"TEME","ELEMENT_SET_NO":"999","SITE":"AFWTR","TLE_LINE2":"2 49158  70.0000 211.4579 0003387 280.0596 155.6998 14.96701600  3590","EPOCH":"2022-05-06T14:00:01.000224","CENTER_NAME":"EARTH","MEAN_MOTION":"14.96701600","GP_ID":"202862919","ECCENTRICITY":"0.00033870","SEMIMAJOR_AXIS":"6955.233","OBJECT_TYPE":"PAYLOAD","MEAN_ANOMALY":"155.6998","RA_OF_ASC_NODE":"211.4579","LAUNCH_DATE":"2021-09-14","BSTAR":"0.00213460000000","OBJECT_NAME":"STARLINK-3083","RCS_SIZE":"LARGE","CLASSIFICATION_TYPE":"U","INCLINATION":"70.0000","EPHEMERIS_TYPE":"0","PERIOD":"96.212","REV_AT_EPOCH":"359","COUNTRY_CODE":"US","DECAY_DATE":null,"PERIAPSIS":"574.742","ARG_OF_PERICENTER":"280.0596","OBJECT_ID":"2021-082AE","MEAN_MOTION_DDOT":"0.0000000000000","MEAN_MOTION_DOT":"0.00024418","NORAD_CAT_ID":"49158","TLE_LINE1":"1 49158U 21082AE  22126.58334491  .00024418  00000-0  21346-2 0  9997","MEAN_ELEMENT_THEORY":"SGP4","TIME_SYSTEM":"UTC","APOAPSIS":"579.454"},{"FILE":"3432208","REF_FRAME":"TEME","ELEMENT_SET_NO":"999","SITE":"AFWTR","EPOCH":"2022-05-06T14:00:01.000224","TLE_LINE2":"2 49159  70.0010 232.1666 0003368 281.6692  20.8527 14.98319503  3604","CENTER_NAME":"EARTH","MEAN_MOTION":"14.98319503","GP_ID":"202863668","ECCENTRICITY":"0.00033680","SEMIMAJOR_AXIS":"6950.225","OBJECT_TYPE":"PAYLOAD","MEAN_ANOMALY":"20.8527","RA_OF_ASC_NODE":"232.1666","LAUNCH_DATE":"2021-09-14","BSTAR":"-0.00082615000000","OBJECT_NAME":"STARLINK-3056","RCS_SIZE":"LARGE","CLASSIFICATION_TYPE":"U","INCLINATION":"70.0010","EPHEMERIS_TYPE":"0","PERIOD":"96.108","REV_AT_EPOCH":"360","COUNTRY_CODE":"US","DECAY_DATE":null,"PERIAPSIS":"569.750","ARG_OF_PERICENTER":"281.6692","MEAN_MOTION_DDOT":"0.0000000000000","MEAN_MOTION_DOT":"-0.00009934","OBJECT_ID":"2021-082AF","NORAD_CAT_ID":"49159","TLE_LINE1":"1 49159U 21082AF  22126.58334491 -.00009934  00000-0 -82615-3 0  9993","MEAN_ELEMENT_THEORY":"SGP4","TIME_SYSTEM":"UTC","APOAPSIS":"574.431"},{"MEAN_MOTION":"14.98340348","CENTER_NAME":"EARTH","SEMIMAJOR_AXIS":"6950.161","ECCENTRICITY":"0.00032130","GP_ID":"202867929","OBJECT_TYPE":"PAYLOAD","MEAN_ANOMALY":"64.9244","FILE":"3432361","EPOCH":"2022-05-06T22:00:00.999936","TLE_LINE2":"2 49160  70.0015 231.3330 0003213 286.4427  64.9244 14.98340348 36936","SITE":"AFWTR","ELEMENT_SET_NO":"999","REF_FRAME":"TEME","REV_AT_EPOCH":"3693","DECAY_DATE":null,"COUNTRY_CODE":"US","ARG_OF_PERICENTER":"286.4427","PERIAPSIS":"569.793","APOAPSIS":"574.259","TIME_SYSTEM":"UTC","MEAN_ELEMENT_THEORY":"SGP4","TLE_LINE1":"1 49160U 21082AG  22126.91667824 -.00047294  00000-0 -39815-2 0  9995","MEAN_MOTION_DDOT":"0.0000000000000","OBJECT_ID":"2021-082AG","MEAN_MOTION_DOT":"-0.00047294","NORAD_CAT_ID":"49160","BSTAR":"-0.00398150000000","LAUNCH_DATE":"2021-09-14","RA_OF_ASC_NODE":"231.3330","RCS_SIZE":"LARGE","CLASSIFICATION_TYPE":"U","OBJECT_NAME":"STARLINK-3095","PERIOD":"96.106","EPHEMERIS_TYPE":"0","INCLINATION":"70.0015"},{"BSTAR":"0.00113840000000","LAUNCH_DATE":"2021-09-14","RA_OF_ASC_NODE":"232.1713","CLASSIFICATION_TYPE":"U","RCS_SIZE":"LARGE","OBJECT_NAME":"STARLINK-3080","PERIOD":"96.107","EPHEMERIS_TYPE":"0","INCLINATION":"70.0015","REV_AT_EPOCH":"358","DECAY_DATE":null,"COUNTRY_CODE":"US","ARG_OF_PERICENTER":"272.8258","PERIAPSIS":"569.765","APOAPSIS":"574.377","TIME_SYSTEM":"UTC","MEAN_ELEMENT_THEORY":"SGP4","TLE_LINE1":"1 49161U 21082AH  22126.58334491  .00013515  00000-0  11384-2 0  9998","OBJECT_ID":"2021-082AH","MEAN_MOTION_DDOT":"0.0000000000000","MEAN_MOTION_DOT":"0.00013515","NORAD_CAT_ID":"49161","FILE":"3432208","EPOCH":"2022-05-06T14:00:01.000224","TLE_LINE2":"2 49161  70.0015 232.1713 0003318 272.8258  55.3639 14.98325888  3587","SITE":"AFWTR","ELEMENT_SET_NO":"999","REF_FRAME":"TEME","MEAN_MOTION":"14.98325888","CENTER_NAME":"EARTH","SEMIMAJOR_AXIS":"6950.206","ECCENTRICITY":"0.00033180","GP_ID":"202862667","OBJECT_TYPE":"PAYLOAD","MEAN_ANOMALY":"55.3639"}];
